METEOSAT-9 (MSG-2)      
1 28912U 05049B   26187.71894763  .00000134  00000+0  00000+0 0  9995
2 28912   9.4026  53.9709 0002205   0.5129 174.7441  1.00268686  7196
METOP-B                 
1 38771U 12049A   26187.82868860  .00000074  00000+0  53716-4 0  9998
2 38771  98.6493 238.9351 0001137 306.5411  53.5662 14.21444742716059
NOAA 20 (JPSS-1)        
1 43013U 17073A   26187.80798339  .00000056  00000+0  47659-4 0  9995
2 43013  98.7772 127.0965 0001063 131.0495 229.0773 14.19515363447256
METOP-C                 
1 43689U 18087A   26187.84687108  .00000070  00000+0  51833-4 0  9990
2 43689  98.6634 247.0902 0002189 104.5597 255.5823 14.21517434397622
NEMO-HD                 
1 46277U 20061F   26187.82174878  .00008692  00000+0  18612-3 0  9999
2 46277  97.1905 249.5802 0001240  77.1970 282.9418 15.45013626325015
METEOSAT-12 (MTG-I1)    
1 54743U 22170C   26187.57473102  .00000009  00000+0  00000+0 0  9995
2 54743   0.7593  25.8620 0003406  76.6678  28.7511  1.00276487 13176
MTG-S1                  
1 64723U 25143A   26187.71723742  .00000007  00000+0  00000+0 0  9999
2 64723   0.5893 343.0440 0003220 262.3052 297.1030  1.00272491  3612
MICROCARB               
1 64899U 25156A   26187.71888977  .00000510  00000+0  87275-4 0  9992
2 64899  98.0076 264.5399 0016954 197.8968 162.1644 14.72878561 50849
NISAR                   
1 65053U 25163A   26187.79507197  .00000211  00000+0  76928-4 0  9994
2 65053  98.4057  15.1737 0001228  89.0997 271.0333 14.42503764 49214
METOP-SGA1              
1 65159U 25172A   26187.73070882  .00000022  00000+0  30682-4 0  9998
2 65159  98.6634 247.0451 0007536 357.6286   2.4853 14.19818253 46560
